NORAD_CAT_ID,OBJECT_NAME,OBJECT_TYPE,EPOCH,MEAN_MOTION,ECCENTRICITY,INCLINATION,RA_OF_ASC_NODE,ARG_OF_PERICENTER,MEAN_ANOMALY,BSTAR,MEAN_MOTION_DOT,MEAN_MOTION_DDOT,TLE_LINE0,TLE_LINE1,TLE_LINE2,SEMIMAJOR_AXIS,PERIOD,APOGEE,PERIGEE,DECAYED
55954.0,STARLINK-5892,PAYLOAD,2024-04-29 12:47:43,14.98327966,0.0003193,69.9995,176.789,273.6343,86.4451,-2.4139e-05,-3.81e-06,0.0,0 STARLINK-5892,1 55954U 23037AS  24120.53314554 -.00000381  00000-0 -24139-4 0  9999,2 55954  69.9995 176.7890 0003193 273.6343  86.4451 14.98327966 62741,6950.199,96.107,574.283,569.845,0.0
55954.0,STARLINK-5892,PAYLOAD,2024-04-29 20:48:23,14.98335028,0.0003282,69.9994,175.9476,273.5652,86.5132,-1.7284e-05,-2.99e-06,0.0,0 STARLINK-5892,1 55954U 23037AS  24120.86694076 -.00000299  00000-0 -17284-4 0  9996,2 55954  69.9994 175.9476 0003282 273.5652  86.5132 14.98335028 63131,6950.177,96.107,574.323,569.761,0.0
55954.0,STARLINK-5892,PAYLOAD,2024-04-30 12:49:44,14.98331051,0.0003231,69.9993,174.2646,271.6955,88.3834,0.0002212,2.547e-05,0.0,0 STARLINK-5892,1 55954U 23037AS  24121.53453796  .00002547  00000-0  22120-3 0  9993,2 55954  69.9993 174.2646 0003231 271.6955  88.3834 14.98331051 62893,6950.19,96.107,574.3,569.809,0.0
55954.0,STARLINK-5892,PAYLOAD,2024-04-30 20:50:24,14.9833212,0.0003231,69.9993,173.4231,271.4661,88.6128,0.00015935,1.809e-05,0.0,0 STARLINK-5892,1 55954U 23037AS  24121.86833843  .00001809  00000-0  15935-3 0  9990,2 55954  69.9993 173.4231 0003231 271.4661  88.6128 14.98332120 62949,6950.186,96.107,574.297,569.806,0.0
55954.0,STARLINK-5892,PAYLOAD,2024-05-01 04:51:04,14.98331757,0.0003131,69.9995,172.5816,271.1423,88.9377,5.7115e-05,5.89e-06,0.0,0 STARLINK-5892,1 55954U 23037AS  24122.20214110  .00000589  00000-0  57115-4 0  9990,2 55954  69.9995 172.5816 0003131 271.1423  88.9377 14.98331757 63330,6950.187,96.107,574.229,569.876,0.0
55954.0,STARLINK-5892,PAYLOAD,2024-05-01 09:39:28,14.98335133,0.0003153,69.9994,172.0765,271.0463,89.0335,5.7431e-05,5.92e-06,0.0,0 STARLINK-5892,1 55954U 23037AS  24122.40241833  .00000592  00000-0  57431-4 0  9999,2 55954  69.9994 172.0765 0003153 271.0463  89.0335 14.98335133 63028,6950.177,96.107,574.233,569.851,0.0
55954.0,STARLINK-5892,PAYLOAD,2024-05-01 20:52:25,14.98333905,0.0003156,69.9994,170.8984,270.8695,89.2102,-6.9209e-06,-1.76e-06,0.0,0 STARLINK-5892,1 55954U 23037AS  24122.86973912 -.00000176  00000-0 -69209-5 0  9996,2 55954  69.9994 170.8984 0003156 270.8695  89.2102 14.98333905 63090,6950.181,96.107,574.239,569.852,0.0
55954.0,STARLINK-5892,PAYLOAD,2024-05-02 04:53:05,14.9833355,0.0003089,69.9995,170.0572,270.8242,89.2563,-9.5992e-05,-1.238e-05,0.0,0 STARLINK-5892,1 55954U 23037AS  24123.20354097 -.00001238  00000-0 -95992-4 0  9999,2 55954  69.9995 170.0572 0003089 270.8242  89.2563 14.98333550 63489,6950.182,96.107,574.194,569.9,0.0
55954.0,STARLINK-5892,PAYLOAD,2024-05-02 12:53:46,14.98332091,0.0003081,69.9994,169.2148,268.7775,91.3031,-9.4133e-05,-1.216e-05,0.0,0 STARLINK-5892,1 55954U 23037AS  24123.53734081 -.00001216  00000-0 -94133-4 0  9992,2 55954  69.9994 169.2148 0003081 268.7775  91.3031 14.98332091 63197,6950.186,96.107,574.193,569.91,0.0
55954.0,STARLINK-5892,PAYLOAD,2024-05-03 04:55:06,14.98336692,0.0003194,69.999,167.5317,269.2765,90.8028,5.1161e-05,5.18e-06,0.0,0 STARLINK-5892,1 55954U 23037AS  24124.20493106  .00000518  00000-0  51161-4 0  9993,2 55954  69.9990 167.5317 0003194 269.2765  90.8028 14.98336692 63632,6950.172,96.107,574.257,569.817,0.0
55954.0,STARLINK-5892,PAYLOAD,2024-05-03 12:55:45,14.98341246,0.0003188,69.9989,166.6902,269.061,91.0184,6.7211e-05,7.09e-06,0.0,0 STARLINK-5892,1 55954U 23037AS  24124.53872582  .00000709  00000-0  67211-4 0  9993,2 55954  69.9989 166.6902 0003188 269.0610  91.0184 14.98341246 63345,6950.158,96.106,574.239,569.807,0.0
55954.0,STARLINK-5892,PAYLOAD,2024-05-04 04:57:07,14.98320578,0.0003119,69.9989,165.0069,268.9488,91.1314,-7.3471e-05,-9.69e-06,0.0,0 STARLINK-5892,1 55954U 23037AS  24125.20634241 -.00000969  00000-0 -73471-4 0  9991,2 55954  69.9989 165.0069 0003119 268.9488  91.1314 14.98320578 63786,6950.222,96.108,574.255,569.919,0.0
55954.0,STARLINK-5892,PAYLOAD,2024-05-05 04:59:08,14.98330488,0.000304,69.999,162.4824,269.7809,90.3002,-0.00010157,-1.305e-05,0.0,0 STARLINK-5892,1 55954U 23037AS  24126.20774030 -.00001305  00000-0 -10157-3 0  9999,2 55954  69.9990 162.4824 0003040 269.7809  90.3002 14.98330488 63930,6950.191,96.107,574.169,569.944,0.0
55954.0,STARLINK-5892,PAYLOAD,2024-05-05 12:59:49,14.98329848,0.000296,69.9992,161.6414,267.5748,92.5072,-7.8359e-05,-1.028e-05,0.0,0 STARLINK-5892,1 55954U 23037AS  24126.54154019 -.00001028  00000-0 -78359-4 0  9996,2 55954  69.9992 161.6414 0002960 267.5748  92.5072 14.98329848 63643,6950.193,96.107,574.116,570.001,0.0
55954.0,STARLINK-5892,PAYLOAD,2024-05-05 19:24:21,14.98329354,0.0002958,69.9992,160.9681,267.6947,92.3873,-2.0088e-05,-3.33e-06,0.0,0 STARLINK-5892,1 55954U 23037AS  24126.80857904 -.00000333  00000-0 -20088-4 0  9992,2 55954  69.9992 160.9681 0002958 267.6947  92.3873 14.98329354 63683,6950.195,96.107,574.116,570.004,0.0
55954.0,STARLINK-5892,PAYLOAD,2024-05-06 05:01:09,14.98326988,0.0003175,69.9985,159.9572,270.599,89.4805,0.00010316,1.138e-05,0.0,0 STARLINK-5892,1 55954U 23037AS  24127.20913739  .00001138  00000-0  10316-3 0  9990,2 55954  69.9985 159.9572 0003175 270.5990  89.4805 14.98326988 64082,6950.202,96.107,574.274,569.861,0.0
55954.0,STARLINK-5892,PAYLOAD,2024-05-06 11:25:41,14.98330124,0.0003135,69.9985,159.284,270.585,89.495,0.00013086,1.469e-05,0.0,0 STARLINK-5892,1 55954U 23037AS  24127.47617492  .00001469  00000-0  13086-3 0  9990,2 55954  69.9985 159.2840 0003135 270.5850  89.4950 14.98330124 63788,6950.193,96.107,574.236,569.879,0.0
55954.0,STARLINK-5892,PAYLOAD,2024-05-06 19:26:21,14.98330454,0.0003109,69.9986,158.4425,270.0349,90.0454,0.0001101,1.221e-05,0.0,0 STARLINK-5892,1 55954U 23037AS  24127.80997507  .00001221  00000-0  11010-3 0  9996,2 55954  69.9986 158.4425 0003109 270.0349  90.0454 14.98330454 63837,6950.191,96.107,574.217,569.896,0.0
55954.0,STARLINK-5892,PAYLOAD,2024-05-07 05:03:10,14.98330582,0.0003068,69.9987,157.4324,269.6037,90.477,4.0649e-05,3.92e-06,0.0,0 STARLINK-5892,1 55954U 23037AS  24128.21053668  .00000392  00000-0  40649-4 0  9992,2 55954  69.9987 157.4324 0003068 269.6037  90.4770 14.98330582 64239,6950.191,96.107,574.188,569.924,0.0
55954.0,STARLINK-5892,PAYLOAD,2024-05-07 11:27:42,14.98331661,0.0003071,69.9987,156.7591,269.5023,90.5784,4.7394e-05,4.73e-06,0.0,0 STARLINK-5892,1 55954U 23037AS  24128.47757535  .00000473  00000-0  47394-4 0  9998,2 55954  69.9987 156.7591 0003071 269.5023  90.5784 14.98331661 63936,6950.188,96.107,574.187,569.918,0.0
55954.0,STARLINK-5892,PAYLOAD,2024-05-08 05:05:11,14.98334139,0.0003054,69.9987,154.9078,269.5113,90.5696,-1.275e-05,-2.45e-06,0.0,0 STARLINK-5892,1 55954U 23037AS  24129.21193359 -.00000245  00000-0 -12750-4 0  9996,2 55954  69.9987 154.9078 0003054 269.5113  90.5696 14.98334139 64382,6950.18,96.107,574.168,569.923,0.0
55954.0,STARLINK-5892,PAYLOAD,2024-05-08 11:29:43,14.9833389,0.0003066,69.9987,154.2346,269.7816,90.2992,-2.236e-05,-3.6e-06,0.0,0 STARLINK-5892,1 55954U 23037AS  24129.47897325 -.00000360  00000-0 -22360-4 0  9994,2 55954  69.9987 154.2346 0003066 269.7816  90.2992 14.98333890 64084,6950.181,96.107,574.177,569.915,0.0
55954.0,STARLINK-5892,PAYLOAD,2024-05-08 19:30:23,14.98333019,0.0003075,69.9987,153.3929,269.946,90.1346,-3.8488e-05,-5.52e-06,0.0,0 STARLINK-5892,1 55954U 23037AS  24129.81277320 -.00000552  00000-0 -38488-4 0  9990,2 55954  69.9987 153.3929 0003075 269.9460  90.1346 14.98333019 64139,6950.184,96.107,574.186,569.911,0.0
55954.0,STARLINK-5892,PAYLOAD,2024-05-09 05:07:11,14.98333014,0.000311,69.9985,152.3827,269.8879,90.1924,3.3442e-06,-5.3e-07,0.0,0 STARLINK-5892,1 55954U 23037AS  24130.21333083 -.00000053  00000-0  33442-5 0  9996,2 55954  69.9985 152.3827 0003110 269.8879  90.1924 14.98333014 64537,6950.184,96.107,574.21,569.887,0.0
55954.0,STARLINK-5892,PAYLOAD,2024-05-09 11:31:43,14.98333721,0.0003128,69.9985,151.7094,270.07,90.0101,-4.6021e-06,-1.48e-06,0.0,0 STARLINK-5892,1 55954U 23037AS  24130.48037000 -.00000148  00000-0 -46021-5 0  9998,2 55954  69.9985 151.7094 0003128 270.0700  90.0101 14.98333721 64230,6950.181,96.107,574.22,569.872,0.0
55954.0,STARLINK-5892,PAYLOAD,2024-05-10 11:33:44,14.98334533,0.0003111,69.9986,149.1845,270.2847,89.7956,2.7323e-05,2.33e-06,0.0,0 STARLINK-5892,1 55954U 23037AS  24131.48176585  .00000233  00000-0  27323-4 0  9997,2 55954  69.9986 149.1845 0003111 270.2847  89.7956 14.98334533 64721,6950.179,96.107,574.206,569.882,0.0
55954.0,STARLINK-5892,PAYLOAD,2024-05-10 17:58:17,14.98330114,0.0003085,69.9987,148.5111,270.4817,89.5988,-2.7605e-05,-4.22e-06,0.0,0 STARLINK-5892,1 55954U 23037AS  24131.74880957 -.00000422  00000-0 -27605-4 0  9996,2 55954  69.9987 148.5111 0003085 270.4817  89.5988 14.98330114 64421,6950.193,96.107,574.202,569.913,0.0
55954.0,STARLINK-5892,PAYLOAD,2024-05-11 05:11:13,14.98329848,0.0003068,69.9987,147.3329,270.1661,89.9146,-3.3351e-05,-4.91e-06,0.0,0 STARLINK-5892,1 55954U 23037AS  24132.21612980 -.00000491  00000-0 -33351-4 0  9999,2 55954  69.9987 147.3329 0003068 270.1661  89.9146 14.98329848 64831,6950.193,96.107,574.191,569.926,0.0
55954.0,STARLINK-5892,PAYLOAD,2024-05-11 08:23:30,14.98321639,0.0002956,69.9989,146.997,258.0707,102.0121,-0.00011631,-1.48e-05,0.0,0 STARLINK-5892,1 55954U 23037AS  24132.34965542 -.00001480  00000-0 -11631-3 0  9993,2 55954  69.9989 146.9970 0002956 258.0707 102.0121 14.98321639 64853,6950.219,96.108,574.138,570.029,0.0
55954.0,STARLINK-5892,PAYLOAD,2024-05-12 05:13:14,14.98328711,0.000313,69.9987,144.8081,266.484,93.5961,-6.841e-05,-9.09e-06,0.0,0 STARLINK-5892,1 55954U 23037AS  24133.21752854 -.00000909  00000-0 -68410-4 0  9993,2 55954  69.9987 144.8081 0003130 266.4840  93.5961 14.98328711 64985,6950.197,96.107,574.237,569.886,0.0
